[{"OBJECT_NAME":"STARLINK-30894","OBJECT_ID":"2023-178B","EPOCH":"2026-03-09T05:48:55.749024","MEAN_MOTION":15.30184445,"ECCENTRICITY":0.00011491,"INCLINATION":53.1621,"RA_OF_ASC_NODE":3.1013,"ARG_OF_PERICENTER":109.9071,"MEAN_ANOMALY":250.2054,"EPHEMERIS_TYPE":0,"CLASSIFICATION_TYPE":"U","NORAD_CAT_ID":58375,"ELEMENT_SET_NO":999,"REV_AT_EPOCH":12975,"BSTAR":3.8033874e-5,"MEAN_MOTION_DOT":7.67e-6,"MEAN_MOTION_DDOT":0},{"OBJECT_NAME":"TSAT-1A","OBJECT_ID":"2024-066A","EPOCH":"2026-03-09T22:56:57.116832","MEAN_MOTION":15.33219384,"ECCENTRICITY":0.00111833,"INCLINATION":45.6179,"RA_OF_ASC_NODE":302.0275,"ARG_OF_PERICENTER":264.5913,"MEAN_ANOMALY":95.3706,"EPHEMERIS_TYPE":0,"CLASSIFICATION_TYPE":"U","NORAD_CAT_ID":59442,"ELEMENT_SET_NO":999,"REV_AT_EPOCH":10653,"BSTAR":0.00047082724,"MEAN_MOTION_DOT":0.00015138,"MEAN_MOTION_DDOT":0}]
